[{"OBJECT_NAME":"STARLINK-4701","OBJECT_ID":"2022-107AD","EPOCH":"2026-03-09T21:18:52.676352","MEAN_MOTION":15.08836917,"ECCENTRICITY":0.0001331,"INCLINATION":53.2166,"RA_OF_ASC_NODE":253.2259,"ARG_OF_PERICENTER":95.4536,"MEAN_ANOMALY":264.6608,"EPHEMERIS_TYPE":0,"CLASSIFICATION_TYPE":"U","NORAD_CAT_ID":53727,"ELEMENT_SET_NO":999,"REV_AT_EPOCH":19458,"BSTAR":-1.0475413e-5,"MEAN_MOTION_DOT":-4.55e-6,"MEAN_MOTION_DDOT":0},{"OBJECT_NAME":"COSMOS 2251 DEB","OBJECT_ID":"1993-036AEJ","EPOCH":"2026-03-09T08:48:35.922816","MEAN_MOTION":15.02476958,"ECCENTRICITY":0.00716068,"INCLINATION":74.0345,"RA_OF_ASC_NODE":70.0126,"ARG_OF_PERICENTER":118.4324,"MEAN_ANOMALY":242.4105,"EPHEMERIS_TYPE":0,"CLASSIFICATION_TYPE":"U","NORAD_CAT_ID":34955,"ELEMENT_SET_NO":999,"REV_AT_EPOCH":91334,"BSTAR":0.00064056468,"MEAN_MOTION_DOT":8.958e-5,"MEAN_MOTION_DDOT":0}]
